{"type": "FeatureCollection", "features": [ {"type": "Feature", "properties": {"norad_id": 29999, "name": "FENGYUN 1C DEB", "group": "fengyun-1c-debris", "lat": -25.068980238244823, "lon": -32.25829927556116, "alt_km": 965.9400809878352, "timestamp": "2025-12-05T04:52:15.565763+00:00", "meta": {"OBJECT_NAME": "FENGYUN 1C DEB", "OBJECT_ID": "1999-025LZ", "EPOCH": "2025-12-04T12:38:49.392384", "MEAN_MOTION": 14.20118016, "ECCENTRICITY": 0.0189248, "INCLINATION": 98.5757, "RA_OF_ASC_NODE": 323.0384, "ARG_OF_PERICENTER": 150.2482, "MEAN_ANOMALY": 330.7046, "EPHEMERIS_TYPE": 0, "CLASSIFICATION_TYPE": "U", "NORAD_CAT_ID": 29999, "ELEMENT_SET_NO": 999, "REV_AT_EPOCH": 97607, "BSTAR": 0.00046224, "MEAN_MOTION_DOT": 1.136e-05, "MEAN_MOTION_DDOT": 0}, "tle": {"line1": "1 29999U 99025LZ  25338.52696056  .00001136  00000+0  46224-3 0  9994", "line2": "2 29999  98.5757 323.0384 0189248 150.2482 330.7046 14.20118016976074"}}, "geometry": {"type": "Point", "coordinates": [-32.25829927556116, -25.068980238244823]}}, {"type": "Feature", "properties": {"norad_id": 30001, "name": "FENGYUN 1C DEB", "group": "fengyun-1c-debris", "lat": 34.47700354324563, "lon": -119.85582763722697, "alt_km": 736.0376487851136, "timestamp": "2025-12-05T04:52:15.565772+00:00", "meta": {"OBJECT_NAME": "FENGYUN 1C DEB", "OBJECT_ID": "1999-025MA", "EPOCH": "2025-12-04T10:10:00.157152", "MEAN_MOTION": 14.38370925, "ECCENTRICITY": 0.0039076, "INCLINATION": 98.9608, "RA_OF_ASC_NODE": 53.1111, "ARG_OF_PERICENTER": 122.8878, "MEAN_ANOMALY": 308.5635, "EPHEMERIS_TYPE": 0, "CLASSIFICATION_TYPE": "U", "NORAD_CAT_ID": 30001, "ELEMENT_SET_NO": 999, "REV_AT_EPOCH": 97312, "BSTAR": 0.0074153, "MEAN_MOTION_DOT": 0.00022827, "MEAN_MOTION_DDOT": 0}, "tle": {"line1": "1 30001U 99025MA  25338.42361293  .00022827  00000+0  74153-2 0  9992", "line2": "2 30001  98.9608  53.1111 0039076 122.8878 308.5635 14.38370925973123"}}, "geometry": {"type": "Point", "coordinates": [-119.85582763722697, 34.47700354324563]}}, {"type": "Feature", "properties": {"norad_id": 30003, "name": "FENGYUN 1C DEB", "group": "fengyun-1c-debris", "lat": -53.88912998619558, "lon": -32.780209951675026, "alt_km": 1052.2650352603441, "timestamp": "2025-12-05T04:52:15.565781+00:00", "meta": {"OBJECT_NAME": "FENGYUN 1C DEB", "OBJECT_ID": "1999-025MC", "EPOCH": "2025-12-04T10:42:08.750304", "MEAN_MOTION": 13.85615944, "ECCENTRICITY": 0.0143153, "INCLINATION": 99.5759, "RA_OF_ASC_NODE": 313.0669, "ARG_OF_PERICENTER": 141.764, "MEAN_ANOMALY": 348.6778, "EPHEMERIS_TYPE": 0, "CLASSIFICATION_TYPE": "U", "NORAD_CAT_ID": 30003, "ELEMENT_SET_NO": 999, "REV_AT_EPOCH": 95373, "BSTAR": 0.00045578, "MEAN_MOTION_DOT": 5.19e-06, "MEAN_MOTION_DDOT": 0}, "tle": {"line1": "1 30003U 99025MC  25338.44593461  .00000519  00000+0  45578-3 0  9994", "line2": "2 30003  99.5759 313.0669 0143153 141.7640 348.6778 13.85615944953736"}}, "geometry": {"type": "Point", "coordinates": [-32.780209951675026, -53.88912998619558]}}, {"type": "Feature", "properties": {"norad_id": 30004, "name": "FENGYUN 1C DEB", "group": "fengyun-1c-debris", "lat": 9.312641373094245, "lon": 158.51628589057418, "alt_km": 809.1371299679786, "timestamp": "2025-12-05T04:52:15.565791+00:00", "meta": {"OBJECT_NAME": "FENGYUN 1C DEB", "OBJECT_ID": "1999-025MD", "EPOCH": "2025-12-04T10:27:19.855008", "MEAN_MOTION": 14.17025291, "ECCENTRICITY": 0.003882, "INCLINATION": 99.2239, "RA_OF_ASC_NODE": 159.2478, "ARG_OF_PERICENTER": 6.2996, "MEAN_ANOMALY": 51.0895, "EPHEMERIS_TYPE": 0, "CLASSIFICATION_TYPE": "U", "NORAD_CAT_ID": 30004, "ELEMENT_SET_NO": 999, "REV_AT_EPOCH": 97189, "BSTAR": 0.0012, "MEAN_MOTION_DOT": 2.383e-05, "MEAN_MOTION_DDOT": 0}, "tle": {"line1": "1 30004U 99025MD  25338.43564647  .00002383  00000+0  12000-2 0  9992", "line2": "2 30004  99.2239 159.2478 0038820   6.2996  51.0895 14.17025291971896"}}, "geometry": {"type": "Point", "coordinates": [158.51628589057418, 9.312641373094245]}}, {"type": "Feature", "properties": {"norad_id": 30005, "name": "FENGYUN 1C DEB", "group": "fengyun-1c-debris", "lat": 17.595644595988695, "lon": 124.59060658380574, "alt_km": 892.3375389940611, "timestamp": "2025-12-05T04:52:15.565800+00:00", "meta": {"OBJECT_NAME": "FENGYUN 1C DEB", "OBJECT_ID": "1999-025ME", "EPOCH": "2025-12-04T03:14:35.893824", "MEAN_MOTION": 13.52190041, "ECCENTRICITY": 0.03464908, "INCLINATION": 99.3015, "RA_OF_ASC_NODE": 300.6084, "ARG_OF_PERICENTER": 115.1263, "MEAN_ANOMALY": 248.624, "EPHEMERIS_TYPE": 0, "CLASSIFICATION_TYPE": "U", "NORAD_CAT_ID": 30005, "ELEMENT_SET_NO": 999, "REV_AT_EPOCH": 92830, "BSTAR": 0.0015922004, "MEAN_MOTION_DOT": 1.492e-05, "MEAN_MOTION_DDOT": 0}, "tle": {"line1": "1 30005U 99025ME  25338.13513766  .00001492  00000+0  15922-2 0  9992", "line2": "2 30005  99.3015 300.6084 0346490 115.1263 248.6240 13.52190041928307"}}, "geometry": {"type": "Point", "coordinates": [124.59060658380574, 17.595644595988695]}}, {"type": "Feature", "properties": {"norad_id": 30007, "name": "FENGYUN 1C DEB", "group": "fengyun-1c-debris", "lat": -20.89625659654393, "lon": 56.66369895348792, "alt_km": 858.2672907954529, "timestamp": "2025-12-05T04:52:15.565814+00:00", "meta": {"OBJECT_NAME": "FENGYUN 1C DEB", "OBJECT_ID": "1999-025MG", "EPOCH": "2025-12-04T16:16:45.887232", "MEAN_MOTION": 14.25309395, "ECCENTRICITY": 0.0065721, "INCLINATION": 99.1782, "RA_OF_ASC_NODE": 239.654, "ARG_OF_PERICENTER": 37.2704, "MEAN_ANOMALY": 353.0638, "EPHEMERIS_TYPE": 0, "CLASSIFICATION_TYPE": "U", "NORAD_CAT_ID": 30007, "ELEMENT_SET_NO": 999, "REV_AT_EPOCH": 97241, "BSTAR": 0.0041501, "MEAN_MOTION_DOT": 9.961e-05, "MEAN_MOTION_DDOT": 0}, "tle": {"line1": "1 30007U 99025MG  25338.67830888  .00009961  00000+0  41501-2 0  9991", "line2": "2 30007  99.1782 239.6540 0065721  37.2704 353.0638 14.25309395972413"}}, "geometry": {"type": "Point", "coordinates": [56.66369895348792, -20.89625659654393]}}, {"type": "Feature", "properties": {"norad_id": 30008, "name": "FENGYUN 1C DEB", "group": "fengyun-1c-debris", "lat": 68.96833127636098, "lon": -90.90361593639585, "alt_km": 689.2569913440493, "timestamp": "2025-12-05T04:52:15.565823+00:00", "meta": {"OBJECT_NAME": "FENGYUN 1C DEB", "OBJECT_ID": "1999-025MH", "EPOCH": "2025-12-04T15:48:36.762048", "MEAN_MOTION": 14.66006909, "ECCENTRICITY": 0.0038561, "INCLINATION": 99.3678, "RA_OF_ASC_NODE": 293.9021, "ARG_OF_PERICENTER": 217.8113, "MEAN_ANOMALY": 223.1124, "EPHEMERIS_TYPE": 0, "CLASSIFICATION_TYPE": "U", "NORAD_CAT_ID": 30008, "ELEMENT_SET_NO": 999, "REV_AT_EPOCH": 98941, "BSTAR": 0.0048298, "MEAN_MOTION_DOT": 0.00026801, "MEAN_MOTION_DDOT": 0}, "tle": {"line1": "1 30008U 99025MH  25338.65875882  .00026801  00000+0  48298-2 0  9995", "line2": "2 30008  99.3678 293.9021 0038561 217.8113 223.1124 14.66006909989414"}}, "geometry": {"type": "Point", "coordinates": [-90.90361593639585, 68.96833127636098]}}, {"type": "Feature", "properties": {"norad_id": 30009, "name": "FENGYUN 1C DEB", "group": "fengyun-1c-debris", "lat": -6.955062305409664, "lon": 35.285520931861164, "alt_km": 834.6410103612534, "timestamp": "2025-12-05T04:52:15.565832+00:00", "meta": {"OBJECT_NAME": "FENGYUN 1C DEB", "OBJECT_ID": "1999-025MJ", "EPOCH": "2025-12-04T15:13:45.977088", "MEAN_MOTION": 14.04829196, "ECCENTRICITY": 0.0063842, "INCLINATION": 99.0153, "RA_OF_ASC_NODE": 33.6113, "ARG_OF_PERICENTER": 358.6101, "MEAN_ANOMALY": 1.4879, "EPHEMERIS_TYPE": 0, "CLASSIFICATION_TYPE": "U", "NORAD_CAT_ID": 30009, "ELEMENT_SET_NO": 999, "REV_AT_EPOCH": 96369, "BSTAR": 0.00098906, "MEAN_MOTION_DOT": 1.572e-05, "MEAN_MOTION_DDOT": 0}, "tle": {"line1": "1 30009U 99025MJ  25338.63455992  .00001572  00000+0  98906-3 0  9990", "line2": "2 30009  99.0153  33.6113 0063842 358.6101   1.4879 14.04829196963691"}}, "geometry": {"type": "Point", "coordinates": [35.285520931861164, -6.955062305409664]}}, {"type": "Feature", "properties": {"norad_id": 30010, "name": "FENGYUN 1C DEB", "group": "fengyun-1c-debris", "lat": -0.7181800273313831, "lon": 171.22273413124736, "alt_km": 843.4768649709313, "timestamp": "2025-12-05T04:52:15.565842+00:00", "meta": {"OBJECT_NAME": "FENGYUN 1C DEB", "OBJECT_ID": "1999-025MK", "EPOCH": "2025-12-04T12:16:44.552928", "MEAN_MOTION": 14.24978805, "ECCENTRICITY": 0.0072418, "INCLINATION": 99.0702, "RA_OF_ASC_NODE": 170.3939, "ARG_OF_PERICENTER": 233.2363, "MEAN_ANOMALY": 181.0081, "EPHEMERIS_TYPE": 0, "CLASSIFICATION_TYPE": "U", "NORAD_CAT_ID": 30010, "ELEMENT_SET_NO": 999, "REV_AT_EPOCH": 98143, "BSTAR": 0.0002653, "MEAN_MOTION_DOT": 5.9e-06, "MEAN_MOTION_DDOT": 0}, "tle": {"line1": "1 30010U 99025MK  25338.51162677  .00000590  00000+0  26530-3 0  9997", "line2": "2 30010  99.0702 170.3939 0072418 233.2363 181.0081 14.24978805981431"}}, "geometry": {"type": "Point", "coordinates": [171.22273413124736, -0.7181800273313831]}}, {"type": "Feature", "properties": {"norad_id": 30012, "name": "FENGYUN 1C DEB", "group": "fengyun-1c-debris", "lat": -62.862449837392454, "lon": 51.35383269202476, "alt_km": 1014.205747226104, "timestamp": "2025-12-05T04:52:15.565851+00:00", "meta": {"OBJECT_NAME": "FENGYUN 1C DEB", "OBJECT_ID": "1999-025MM", "EPOCH": "2025-12-04T10:12:43.950816", "MEAN_MOTION": 13.8575656, "ECCENTRICITY": 0.013685, "INCLINATION": 99.4655, "RA_OF_ASC_NODE": 31.5739, "ARG_OF_PERICENTER": 167.7143, "MEAN_ANOMALY": 210.2655, "EPHEMERIS_TYPE": 0, "CLASSIFICATION_TYPE": "U", "NORAD_CAT_ID": 30012, "ELEMENT_SET_NO": 999, "REV_AT_EPOCH": 95433, "BSTAR": 0.00053427, "MEAN_MOTION_DOT": 6.13e-06, "MEAN_MOTION_DDOT": 0}, "tle": {"line1": "1 30012U 99025MM  25338.42550869  .00000613  00000+0  53427-3 0  9994", "line2": "2 30012  99.4655  31.5739 0136850 167.7143 210.2655 13.85756560954337"}}, "geometry": {"type": "Point", "coordinates": [51.35383269202476, -62.862449837392454]}}]}